[
    {
        "Altitude(m)": 617719.7692284649,
        "Argument of Periapsis(deg)": 0.0,
        "Eccentricity": 0.0,
        "Inclination(deg)": 60.0,
        "Latitude(deg)": -41.10263546375657,
        "Longitude(deg)": -154.90545476831605,
        "Mean Anomaly(deg)": 229.09090000000006,
        "RAAN(deg)": 95.0,
        "Satellite Name": "Test1 432",
        "Satellite Number": 432,
        "Semi-Major Axis(m)": 6980739.136638005,
        "Time(s)": 0
    },
    {
        "Altitude(m)": 617911.3055128364,
        "Argument of Periapsis(deg)": 0.00010418945913296404,
        "Eccentricity": 0.0,
        "Inclination(deg)": 60.0,
        "Latitude(deg)": -41.56582847432356,
        "Longitude(deg)": -154.40104992486434,
        "Mean Anomaly(deg)": 229.71100614546188,
        "RAAN(deg)": 94.99957995086027,
        "Satellite Name": "Test1 432",
        "Satellite Number": 432,
        "Semi-Major Axis(m)": 6980739.136638005,
        "Time(s)": 10
    }
]